GLOBALSTAR M075 [+]     
1 37192U 10054E   23245.51307939 -.00000098  00000+0  29419-4 0  9991
2 37192  51.9972  11.8308 0000526  90.1622  31.6200 12.62260670593822
GLOBALSTAR M073 [+]     
1 37193U 10054F   23245.09432403 -.00000082  00000+0  12021-3 0  9993
2 37193  52.0055 286.4301 0000387 108.6552 268.9994 12.62267066595285
GLOBALSTAR M083 [+]     
1 37739U 11033A   23245.45679278 -.00000105  00000+0 -72671-5 0  9996
2 37739  51.9841 234.9479 0000201 143.1122  23.4660 12.62268679564650
GLOBALSTAR M088 [+]     
1 37740U 11033B   23245.10945413 -.00000069  00000+0  19658-3 0  9999
2 37740  51.9728 142.0479 0000350  46.4852 100.6249 12.62265109560084
GLOBALSTAR M091 [+]     
1 37741U 11033C   23245.36557664 -.00000079  00000+0  14031-3 0  9996
2 37741  51.9990 103.6532 0000413  65.1460 105.7996 12.62265998560870
GLOBALSTAR M085 [+]     
1 37742U 11033D   23245.39497823 -.00000107  00000+0 -15765-4 0  9999
2 37742  51.9872  55.1782 0000570  92.5420 272.9689 12.62266623561628
GLOBALSTAR M081 [+]     
1 37743U 11033E   23244.78981641 -.00000099  00000+0  23909-4 0  9996
2 37743  51.9961  59.4054 0000532  66.2549 307.4977 12.62270642561209
GLOBALSTAR M089 [+]     
1 37744U 11033F   23245.38279953 -.00000104  00000+0  57658-6 0  9997
2 37744  51.9955  11.9517 0000842  80.0582 289.3486 12.62266309562372
